COSMOS 2433 (720)       
1 32275C 07052A   20356.99979167 -.00000000  00000-0  00000-0 0  3564
2 32275  66.0286  22.6811 0005373 253.2641  14.7870  2.13104410    14
COSMOS 2432 (719)       
1 32276C 07052B   20356.99979167 -.00000000  00000-0  00000-0 0  3565
2 32276  66.0413  22.7731 0011213 316.2443 261.5108  2.13103664    15
COSMOS 2434 (721)       
1 32393C 07065A   20356.99979167  .00000000  00000-0  00000-0 0  3568
2 32393  64.5114 259.9887 0003266  72.7671  83.2087  2.13103157    10
COSMOS 2436 (723)       
1 32395C 07065C   19331.99979167  .00000001  00000-0  00000-0 0  3315
2 32395  64.6628 273.4180 0015428 335.5981 236.1653  2.13280743    12
COSMOS 2456 (730)       
1 36111C 09070A   20356.99979167 -.00000000  00000-0  00000-0 0  3569
2 36111  64.2514 139.6671 0002160 343.7847 345.0992  2.13099389    11
COSMOS 2457 (733)       
1 36112C 09070B   19331.99979167  .00000002  00000-0  00000-0 0  3315
2 36112  64.1929 152.9203 0006907 146.4578 270.9332  2.13101641    11
COSMOS 2459 (731)       
1 36400C 10007A   20330.99979167 -.00000004  00000-0  00000-0 0  3300
2 36400  65.9178  22.4636 0018434   1.3868 338.5011  2.13103875    12
COSMOS 2460 (732)       
1 36402C 10007C   20324.99979167 -.00000004  00000-0  00000-0 0  3248
2 36402  65.9038  22.6237 0002105 226.0667 133.6183  2.13101313    18
COSMOS 2464 (736)       
1 37139C 10041C   20356.99979167  .00000000  00000-0  00000-0 0  3569
2 37139  64.1109 259.3342 0028438  10.6847   7.5137  2.13100868    18
COSMOS 2476 (744)       
1 37867C 11064A   20356.99979167 -.00000000  00000-0  00000-0 0  3564
2 37867  64.5484 140.8102 0018863 232.2441 357.4345  2.13101976    16
COSMOS 2477 (745)       
1 37868C 11064B   20356.99979167 -.00000000  00000-0  00000-0 0  3565
2 37868  64.5564 140.8689 0016407 232.4338 175.6702  2.13101895    12
COSMOS 2475 (743)       
1 37869C 11064C   20356.99979167 -.00000000  00000-0  00000-0 0  3566
2 37869  64.5638 140.8721 0019748 255.9575 109.7159  2.13102081    18
COSMOS 2485 (747)       
1 39155C 13019A   20356.99979167 -.00000000  00000-0  00000-0 0  3568
2 39155  64.7153 141.1204 0019515 227.6395  46.5791  2.13102026    19
COSMOS 2492 (754)       
1 39620C 14012A   20356.99979167 -.00000000  00000-0  00000-0 0  3569
2 39620  65.7999  21.3102 0014539 315.1657 353.9834  2.13103390    14
COSMOS 2500 (755)       
1 40001C 14032A   20350.99979167  .00000000  00000-0  00000-0 0  3503
2 40001  65.7388  21.4137 0008255 218.0534  28.1805  2.13102293    13
COSMOS 2501 (702)       
1 40315C 14075A   20356.99979167  .00000000  00000-0  00000-0 0  3560
2 40315  63.8250 260.2085 0015891 211.2364 123.7103  2.13101432    10
COSMOS 2514 (751)       
1 41330C 16008A   20356.99979167 -.00000000  00000-0  00000-0 0  3567
2 41330  65.5426  21.0377 0011886 223.4082 128.6053  2.13103065    13
COSMOS 2516 (753)       
1 41554C 16032A   20349.99979167 -.00000001  00000-0  00000-0 0  3497
2 41554  64.7887 260.0743 0009233   6.7497 273.6158  2.12678905    16
COSMOS 2522 (752)       
1 42939C 17055A   20356.99979167  .00000000  00000-0  00000-0 0  3565
2 42939  64.2827 260.5679 0006778 254.9313 214.8820  2.13102178    19
COSMOS 2527 (756)       
1 43508C 18053A   20356.99979167 -.00000000  00000-0  00000-0 0  3568
2 43508  64.8795 141.0071 0006750 215.5393 286.2539  2.13102668    16
COSMOS 2529 (757)       
1 43687C 18086A   20356.99979167  .00000000  00000-0  00000-0 0  3561
2 43687  64.4967 260.7380 0009588 278.1665 147.2218  2.13102212    17
COSMOS 2534 (758)       
1 44299C 19030A   20356.99979167  .00000000  00000-0  00000-0 0  3561
2 44299  64.5671 260.5723 0013016 295.1849 265.1400  2.13101950    14
COSMOS 2544 (759)       
1 44850C 19088A   20356.99979167 -.00000000  00000-0  00000-0 0  3568
2 44850  64.8640 140.8711 0009771 258.4812 287.2218  2.13102392    11
COSMOS 2545 (760)       
1 45358C 20018A   19320.99979167 -.00000004  00000-0  00000-0 0  3201
2 45358  65.8070  35.0079 0005134  75.6998 123.1059  2.13101688    16
